{
    "features": [
        {
            "geometry": {
                "coordinates": [
                    -4.081192199999999,
                    39.7940274
                ],
                "type": "Point"
            },
            "properties": {
                "navegacion": {
                    "fecha_ini_utc": "2025-07-22 11:28:33.500",
                    "name": "Punto_1",
                    "perfil": "1",
                    "t_fin": "2848.712",
                    "t_ini": "2697.181",
                    "x": 294.99205709999995,
                    "y": 2.2969044,
                    "zona_utm": "30.0"
                },
                "sonda": {
                    "Blue": [
                        null,
                        null,
                        null,
                        null,
                        null
                    ],
                    "Chl": [
                        null,
                        null,
                        null,
                        null,
                        null
                    ],
                    "DO": [
                        null,
                        null,
                        null,
                        null,
                        null
                    ],
                    "DO_SAT": [
                        null,
                        null,
                        null,
                        null,
                        null
                    ],
                    "pH": [
                        null,
                        null,
                        null,
                        null,
                        null
                    ],
                    "profundidad": [
                        null,
                        null,
                        null,
                        null,
                        null
                    ],
                    "temperatura": [
                        null,
                        null,
                        null,
                        null,
                        null
                    ]
                }
            },
            "type": "Feature"
        },
        {
            "geometry": {
                "coordinates": [
                    -4.0811911,
                    39.7940295
                ],
                "type": "Point"
            },
            "properties": {
                "navegacion": {
                    "fecha_ini_utc": "2025-07-22 11:40:10.500",
                    "name": "Punto_2",
                    "perfil": "2",
                    "t_fin": "3545.715",
                    "t_ini": "3394.178",
                    "x": 251.4329058,
                    "y": 2.4179997,
                    "zona_utm": "30.0"
                },
                "sonda": {
                    "Blue": [
                        null,
                        null,
                        null,
                        null,
                        null
                    ],
                    "Chl": [
                        null,
                        null,
                        null,
                        null,
                        null
                    ],
                    "DO": [
                        null,
                        null,
                        null,
                        null,
                        null
                    ],
                    "DO_SAT": [
                        null,
                        null,
                        null,
                        null,
                        null
                    ],
                    "pH": [
                        null,
                        null,
                        null,
                        null,
                        null
                    ],
                    "profundidad": [
                        null,
                        null,
                        null,
                        null,
                        null
                    ],
                    "temperatura": [
                        null,
                        null,
                        null,
                        null,
                        null
                    ]
                }
            },
            "type": "Feature"
        }
    ],
    "metadata": {
        "ID_sonda": "1",
        "Numero medidas clorofila": "12",
        "Numero medidas ficocianina": "12",
        "Periodo medidas": "4",
        "Referencia": "Prueba_geojson",
        "Ruta archivo medidas": "/home/dacya-iagesbloom/PprzGCS/Planificacion/Resources/Medidas_sonda/datos_sensor.csv",
        "Valor clorofila": "2",
        "Valor ficocianina": "2",
        "std clorofila": "1",
        "std ficocianina": "1"
    },
    "type": "FeatureCollection"
}
